CBERS 4                 
1 40336U 14079A   21061.50975643  .00000002  00000-0  15956-4 0  9998
2 40336  98.5329 136.8186 0001917  82.5829 277.5601 14.35425445326702
CZ-4B R/B               
1 40337U 14079B   21061.45978044  .00000162  00000-0  19208-4 0  9992
2 40337  98.4374 330.6041 0175968 190.6188 169.1294 14.89561114338804
